{
  "type": "FeatureCollection",
  "features": [
    {
      "type": "Feature",
      "geometry": { "type": "Point", "coordinates": [88.3615, 22.7565] },
      "properties": {
        "title": "Leora Stay",
        "subtitle": "Barrackpore",
        "url": "./leora-stay.html"
      }
    },
    {
      "type": "Feature",
      "geometry": { "type": "Point", "coordinates": [88.4795, 22.7212] },
      "properties": {
        "title": "Star Mall",
        "subtitle": "Barasat",
        "url": "./star-mall.html"
      }
    },
    {
      "type": "Feature",
      "geometry": { "type": "Point", "coordinates": [88.4357, 22.7483] },
      "properties": {
        "title": "Adamas University",
        "subtitle": "Barasat-Barrackpore Road",
        "url": "./adamas-university.html"
      }
    },
    {
      "type": "Feature",
      "geometry": { "type": "Point", "coordinates": [114.1694, 22.3193] },
      "properties": {
        "title": "Hong Kong",
        "subtitle": "Special Administrative Region",
        "url": "./hong-kong.html"
      }
    },
    {
      "type": "Feature",
      "geometry": { "type": "Point", "coordinates": [8.2275, 46.8182] },
      "properties": {
        "title": "Switzerland",
        "subtitle": "Europe",
        "url": "./switzerland.html"
      }
    }
  ]
}

